{"fetched_at":"2026-07-19T07:05:34.422Z","source":"https://celestrak.org/NORAD/elements/gp.php?NAME=SENTINEL&FORMAT=JSON","constellation":"sentinel-1","records":[{"OBJECT_NAME":"SENTINEL-1A","OBJECT_ID":"2014-016A","EPOCH":"2026-07-18T20:12:10.880640","CLASSIFICATION_TYPE":"U","MEAN_MOTION":14.59172954,"ECCENTRICITY":0.0001452,"INCLINATION":98.173,"RA_OF_ASC_NODE":206.9118,"ARG_OF_PERICENTER":83.7987,"MEAN_ANOMALY":276.3378,"EPHEMERIS_TYPE":0,"NORAD_CAT_ID":39634,"ELEMENT_SET_NO":999,"REV_AT_EPOCH":65463,"BSTAR":-0.000030906,"MEAN_MOTION_DOT":-0.00000191,"MEAN_MOTION_DDOT":0},{"OBJECT_NAME":"SENTINEL-1C","OBJECT_ID":"2024-235A","EPOCH":"2026-07-18T21:08:52.840896","CLASSIFICATION_TYPE":"U","MEAN_MOTION":14.59198234,"ECCENTRICITY":0.0001393,"INCLINATION":98.1823,"RA_OF_ASC_NODE":206.7397,"ARG_OF_PERICENTER":89.0641,"MEAN_ANOMALY":271.0718,"EPHEMERIS_TYPE":0,"NORAD_CAT_ID":62261,"ELEMENT_SET_NO":999,"REV_AT_EPOCH":8603,"BSTAR":0.000022324,"MEAN_MOTION_DOT":5.9e-7,"MEAN_MOTION_DDOT":0},{"OBJECT_NAME":"SENTINEL-1D","OBJECT_ID":"2025-251A","EPOCH":"2026-07-18T18:40:59.314656","CLASSIFICATION_TYPE":"U","MEAN_MOTION":14.5919715,"ECCENTRICITY":0.0001334,"INCLINATION":98.1839,"RA_OF_ASC_NODE":206.6936,"ARG_OF_PERICENTER":88.9069,"MEAN_ANOMALY":271.2284,"EPHEMERIS_TYPE":0,"NORAD_CAT_ID":66315,"ELEMENT_SET_NO":999,"REV_AT_EPOCH":3733,"BSTAR":-4.629e-8,"MEAN_MOTION_DOT":-4.6e-7,"MEAN_MOTION_DDOT":0}]}
