SENTINEL-1A             
1 39634U 14016A   26199.84179260 -.00000191  00000+0 -30906-4 0  9995
2 39634  98.1730 206.9118 0001452  83.7987 276.3378 14.59172954654633
SENTINEL-1C             
1 62261U 24235A   26199.88116714  .00000059  00000+0  22324-4 0  9996
2 62261  98.1823 206.7397 0001393  89.0641 271.0718 14.59198234 86037
SENTINEL-1D             
1 66315U 25251A   26199.77846429 -.00000046  00000+0 -46290-7 0  9999
2 66315  98.1839 206.6936 0001334  88.9069 271.2284 14.59197150 37338
